HULIANWANG DIGUI-121    
1 67061U 25295C   25357.42819951 -.00000239  00000+0 -33550-4 0  9999
2 67061  50.0019 327.1083 0013406 283.4183  76.5236 14.25038967  1649
HULIANWANG DIGUI-122    
1 67062U 25295D   25358.12768456  .00000001  00000+0  67400-4 0  9997
2 67062  50.0052 324.1508 0013166 293.4988  66.4542 14.25757671  1742
HULIANWANG DIGUI-123    
1 67063U 25295E   25357.77613648 -.00000005  00000+0  64662-4 0  9992
2 67063  50.0059 325.6275 0012473 291.5304  68.4280 14.25890271  1697
HULIANWANG DIGUI-124    
1 67064U 25295F   25356.23385528 -.00000684  00000+0 -21790-3 0  9994
2 67064  50.0035 332.1235 0012142 280.5756  79.3790 14.25948838  1479
HULIANWANG DIGUI-125    
1 67065U 25295G   25358.12599949 -.00000004  00000+0  65029-4 0  9998
2 67065  50.0009 324.1276 0012265 293.4537  66.5087 14.25956035  1748
HULIANWANG DIGUI-126    
1 67066U 25295H   25358.12476588  .00000006  00000+0  69144-4 0  9995
2 67066  50.0012 324.1203 0011423 290.5968  69.3721 14.26099048  1743
HULIANWANG DIGUI-127    
1 67067U 25295J   25356.65216912 -.00000825  00000+0 -27535-3 0  9993
2 67067  50.0053 330.3407 0010850 289.3117  70.6623 14.26251195  1535
CZ-12 R/B               
1 67068U 25295K   25358.13735086 -.00000091  00000+0  23293-4 0  9999
2 67068  49.9942 322.8525 0056873 176.7533 183.3767 14.41129625  1757
XIWANG-5 02             
1 67069U 25296A   25357.50051046  .00011945  00000+0  60249-3 0  9998
2 67069  41.3523  40.1941 0014556 102.8792 257.3656 15.16891516  1599
DEAR-5                  
1 67070U 25296B   25357.96051647  .00005352  00000+0  27550-3 0  9990
2 67070  41.3551  37.5614 0016166 107.8349 252.4237 15.16917161  1654
KZ-11 R/B               
1 67071U 25296C   25357.56399251  .08905056  74622-5  43407-3 0  9997
2 67071  41.3042  41.8002 0391123  29.8317 332.4210 15.58172368  1575
ELECTRON R/B            
1 67072U 25297A   25358.03574045  .08921509  19907-5  64486-3 0  9994
2 67072  97.4425 146.5410 0070591 193.6989 166.2391 16.29236648  1582
